satname,norad_id,inclination_deg,eccentricity,mean_motion_rev_per_day,perigee_km,apogee_km,l1,l2
STARLINK-1422,45696,53.1588,0.0001941,15.3485417,460.02613898926575,462.6812292728455,1 45696U 20035AR  26157.83831876  .00038434  00000+0  11265-2 0  9993,2 45696  53.1588 354.4879 0001941 140.6669 219.4475 15.34854170332636
STARLINK-1351,45697,53.0438,0.0003045,15.6635856,367.27977996971094,371.38899004317955,1 45697U 20035AS  26157.70368004  .00061278  00000+0  58093-3 0  9991,2 45697  53.0438 307.9795 0003045 139.3270 220.7973 15.66358560333265
STARLINK-1400,45700,53.043,0.0001759,15.65101922,371.75813371559707,374.13316459156795,1 45700U 20035AV  26157.90850007  .00050754  00000+0  50757-3 0  9993,2 45700  53.0430 309.5298 0001759  58.5287 301.5899 15.65101922333259
STARLINK-1403,45701,53.1563,0.0001697,15.3388322,463.0784991782466,465.40080181342546,1 45701U 20035AW  26157.78526576  .00042069  00000+0  12698-2 0  9992,2 45701  53.1563 342.2749 0001697 191.8067 168.2896 15.33883220332797
STARLINK-1407,45703,53.0265,0.0006263,15.73774754,343.907368293354,352.332677840448,1 45703U 20035AY  26157.52135695  .00084462  00000+0  58493-3 0  9991,2 45703  53.0265 238.0759 0006263  24.5512 335.5803 15.73774754334223
STARLINK-1411,45706,53.0283,0.0010216,15.92532923,288.380032075871,302.0149891479532,1 45706U 20035BB  26158.00004630  .00413184  76970-4  11864-2 0  9993,2 45706  53.0283 257.1135 0010216 339.9497 198.4562 15.92532923  6016
STARLINK-1423,45710,53.0446,0.0005444,15.69060184,357.9178111039,365.2560225045154,1 45710U 20035BF  26157.65142139  .00064405  00000+0  54639-3 0  9997,2 45710  53.0446 307.2709 0005444  89.7343 270.4297 15.69060184333257
STARLINK-1433,45711,53.0436,0.0005146,15.68643205,359.3123627931891,366.25011584509593,1 45711U 20035BG  26157.89140388  .00061798  00000+0  53373-3 0  9994,2 45711  53.0436 304.6846 0005146  97.3235 262.8365 15.68643205333312
STARLINK-1434,45712,53.0506,0.0001774,15.3431144,461.7528600950591,464.18008360687236,1 45712U 20035BH  26157.76100237  .00035901  00000+0  10715-2 0  9999,2 45712  53.0506 324.9740 0001774  79.5276 280.5925 15.34311440333033
STARLINK-1465,45731,53.0436,0.0001593,15.68387063,362.4412053478045,364.589095722964,1 45731U 20038B   26158.00004630 -.00029227  00000+0 -25059-3 0  9995,2 45731  53.0436 149.7316 0001593  87.8598  93.8260 15.68387063  5962
STARLINK-1471,45735,53.0443,0.0003041,15.53498722,404.456959053372,408.58338754617307,1 45735U 20038F   26157.94188264  .00028657  00000+0  44919-3 0  9997,2 45735  53.0443  72.8926 0003041 115.6489 244.4835 15.53498722331385
STARLINK-1480,45741,53.0471,0.0006531,15.65228777,368.17198641064806,376.9897741058412,1 45741U 20038M   26157.69581075  .00059834  00000+0  59321-3 0  9997,2 45741  53.0471 144.9138 0006531  29.5978 330.5405 15.65228777330352
STARLINK-1500,45744,53.0339,0.0001991,15.39156212,447.2439874309439,449.96239537516067,1 45744U 20038Q   26157.62746028  .00031316  00000+0  80165-3 0  9999,2 45744  53.0339 134.1022 0001991 114.9968 245.1242 15.39156212330494
STARLINK-1504,45746,53.0205,0.0003508,15.58936037,388.3606152867851,393.10965597714494,1 45746U 20038S   26156.93318976  .00045674  00000+0  58078-3 0  9991,2 45746  53.0205  74.5692 0003508  98.8510 261.2899 15.58936037331251
STARLINK-1506,45747,53.0744,0.0002252,15.28290661,479.37728591164523,482.4666060609179,1 45747U 20038T   26157.26041141  .00010499  00000+0  38799-3 0  9991,2 45747  53.0744 151.9424 0002252 156.1654 203.9450 15.28290661330220
STARLINK-1464,45751,53.0458,0.0004614,15.54089965,401.66963279625725,407.92892639506863,1 45751U 20038X   26157.64785470  .00033509  00000+0  51248-3 0  9999,2 45751  53.0458 138.1297 0004614  36.9557 323.1769 15.54089965330447
STARLINK-1477,45754,53.0478,0.0001471,15.18854503,508.28823088800436,510.3145152573625,1 45754U 20038AA  26157.72688961  .00017319  00000+0  83406-3 0  9990,2 45754  53.0478 166.8405 0001471 349.5573  10.5391 15.18854503330042
STARLINK-1478,45755,53.0443,0.0004791,15.68306286,360.5166019281469,366.9766748304419,1 45755U 20038AB  26157.61277823  .00070983  00000+0  62018-3 0  9992,2 45755  53.0443 123.1749 0004791  69.5746 290.5784 15.68306286330637
STARLINK-1493,45759,53.0452,0.0006992,15.64966404,368.6147532759169,378.0560122559755,1 45759U 20038AF  26157.95242124  .00055588  00000+0  55749-3 0  9996,2 45759  53.0452 131.1681 0006992  27.6268 332.5117 15.64966404330552
STARLINK-1494,45760,53.0357,0.0003112,16.09887519,245.09008449199428,249.21366428741476,1 45760U 20038AG  26157.43906347  .00785143  34852-3  82141-3 0  9994,2 45760  53.0357  61.8254 0003112 218.6910 141.3901 16.09887519331489
STARLINK-1502,45764,53.044,0.0005607,15.61431061,379.7312591188984,387.3137841064354,1 45764U 20038AL  26157.10641673  .00133202  00000+0  15116-2 0  9994,2 45764  53.0440 139.0871 0005607 358.5556   1.5440 15.61431061330387
STARLINK-1470,45772,53.0446,0.0004388,15.35147459,457.48174974695667,463.4833222517491,1 45772U 20038AU  26157.60839810  .00032342  00000+0  94137-3 0  9994,2 45772  53.0446 119.2302 0004388  36.7211 323.4091 15.35147459330709
STARLINK-1482,45773,53.1576,0.0004379,15.37685719,449.96344962513103,455.94611981018807,1 45773U 20038AV  26157.10052272  .00071756  00000+0  19029-2 0  9997,2 45773  53.1576 138.0539 0004379  32.3015 327.8256 15.37685719330417
STARLINK-1496,45780,53.0453,6.27e-05,15.68457405,362.8908941759264,363.73627207905065,1 45780U 20038BC  26157.15157475  .00081288  00000+0  70456-3 0  9994,2 45780  53.0453 109.4772 0000627 113.9514 246.1567 15.68457405330782
STARLINK-1513,45786,53.1581,0.0001517,15.3169777,469.7076670990682,471.78561839627764,1 45786U 20038BJ  26157.66277971  .00000007  00000+0  11991-4 0  9990,2 45786  53.1581 137.3148 0001517  96.8003 263.3171 15.31697770330478
STARLINK-1522,46027,53.062,0.0002383,15.13075134,525.1830294738347,528.4739360229123,1 46027U 20055A   26157.50691438  .00022099  00000+0  12477-2 0  9992,2 46027  53.0620  84.9339 0002383  51.4701 308.6505 15.13075134322315
STARLINK-1523,46028,53.1617,0.0001027,15.3049542,473.62939175166684,475.0368891185117,1 46028U 20055B   26157.48022362  .00023988  00000+0  81198-3 0  9999,2 46028  53.1617  74.2746 0001027 109.4207 250.6905 15.30495420322498
STARLINK-1526,46029,53.1581,0.0001319,15.30195058,474.3258662959688,476.13378446450406,1 46029U 20055C   26157.47467057  .00002317  00000+0  90337-4 0  9992,2 46029  53.1581  74.3161 0001319  89.6375 270.4777 15.30195058322480
STARLINK-1555,46032,53.1588,0.0001172,15.3019356,474.4310830497998,476.03751328209,1 46032U 20055F   26157.06697562  .00000454  00000+0  27462-4 0  9996,2 46032  53.1588  76.1937 0001172 102.1354 257.9778 15.30193560322428
STARLINK-1556,46033,53.1593,8.96e-05,15.30205506,474.5845706726741,475.81268841748806,1 46033U 20055G   26157.05011470  .00005233  00000+0  18865-3 0  9990,2 46033  53.1593  76.2903 0000896  80.2298 279.8804 15.30205506322397
STARLINK-1557,46034,53.1592,0.0001126,15.30196318,474.45437454876446,475.99775191060326,1 46034U 20055H   26157.05327947  .00002097  00000+0  82901-4 0  9998,2 46034  53.1592  76.2699 0001126  81.4887 278.6242 15.30196318322396
STARLINK-1558,46035,53.1582,0.0001189,15.30183922,474.4482065805687,476.0779451186054,1 46035U 20055J   26156.93002768  .00006551  00000+0  23324-3 0  9998,2 46035  53.1582  76.8425 0001189  87.9560 272.1577 15.30183922322406
STARLINK-1560,46036,53.1605,0.0001245,15.3019477,474.3774410242677,476.08392957790875,1 46036U 20055K   26157.50416138  .00001456  00000+0  61277-4 0  9992,2 46036  53.1605  74.1857 0001245  92.1124 268.0020 15.30194770322499
STARLINK-1569,46039,53.1588,0.0001384,15.30211894,474.2310572978695,476.12805532065613,1 46039U 20055N   26157.91290161  .00009530  00000+0  33335-3 0  9990,2 46039  53.1588  72.2697 0001384  97.6558 262.4600 15.30211894322543
STARLINK-1582,46043,53.1609,0.0001913,15.3170533,469.4139196893366,472.0342939488064,1 46043U 20055S   26157.47430008 -.00000601  00000+0 -75939-5 0  9992,2 46043  53.1609  73.7255 0001913  80.9832 279.1386 15.31705330322489
STARLINK-1591,46045,53.1602,0.0001123,15.30195749,474.458129305669,475.9973950312515,1 46045U 20055U   26157.48836025  .00001628  00000+0  67069-4 0  9996,2 46045  53.1602  74.2463 0001123  82.7962 277.3166 15.30195749322468
STARLINK-1524,46047,53.1594,0.0001375,15.31723178,469.72919259823084,471.6126147717441,1 46047U 20055W   26157.90037856  .00012204  00000+0  40410-3 0  9992,2 46047  53.1594  59.0412 0001375  84.6799 275.4360 15.31723178322732
STARLINK-1527,46048,53.1584,0.0001236,15.31716266,469.8449923516255,471.53802275869384,1 46048U 20055X   26157.96096492  .00012338  00000+0  40848-3 0  9993,2 46048  53.1584  58.7407 0001236  90.3753 269.7390 15.31716266322719
STARLINK-1540,46051,53.16,0.0001124,15.31703827,469.95877466954425,471.4983996535375,1 46051U 20055AA  26157.42500958  .00005324  00000+0  18317-3 0  9998,2 46051  53.1600  61.4453 0001124  92.2740 267.8390 15.31703827322670
STARLINK-1541,46052,53.1581,0.0003438,15.83859525,317.23530302795643,321.8406243329837,1 46052U 20055AB  26158.00004630  .00212452  00000+0  91637-3 0  9998,2 46052  53.1581  42.9214 0003438 227.5834 144.8652 15.83859525  6000
STARLINK-1543,46053,53.1606,0.0001284,15.31708473,469.8353452068486,471.5941303331074,1 46053U 20055AC  26157.46227005  .00008630  00000+0  28947-3 0  9996,2 46053  53.1606  61.0766 0001284  97.6632 262.4515 15.31708473322679
STARLINK-1548,46054,53.161,0.0001074,15.31701703,469.9993498319018,471.4704875200341,1 46054U 20055AD  26156.88901005  .00000762  00000+0  36304-4 0  9996,2 46054  53.1610  63.8187 0001074  75.8500 284.2621 15.31701703322580
STARLINK-1554,46055,53.1593,9.22e-05,15.3169987,470.1089162542212,471.371849243601,1 46055U 20055AE  26157.45761504 -.00000509  00000+0 -46397-5 0  9994,2 46055  53.1593  61.1144 0000922  98.0683 262.0423 15.31699870322670
